KUIPER-00008            
1 63724U 25088A   25347.64362363 -.00009475  00000+0 -74397-3 0  9998
2 63724  51.8926 119.1340 0009588 173.9091 186.1998 14.99411824 35153
KUIPER-00009            
1 63725U 25088B   25347.68237265 -.00016879  00000+0 -21929-2 0  9993
2 63725  51.9012 126.9415 0012968 164.0591 196.0782 14.79817867 35046
KUIPER-00010            
1 63726U 25088C   25347.59769320  .00003918  00000+0  53634-3 0  9993
2 63726  51.8995 103.6828 0011799 212.3411 147.6830 14.80410472 34986
KUIPER-00011            
1 63727U 25088D   25347.63268965 -.00003895  00000+0 -48091-3 0  9995
2 63727  51.8982 111.1983 0014260 182.8337 177.2547 14.79924336 35019
KUIPER-00012            
1 63728U 25088E   25347.67098861  .00004742  00000+0  69984-3 0  9990
2 63728  51.9013  94.4323 0008362 194.7092 165.3627 14.76787325 35203
KUIPER-00013            
1 63729U 25088F   25347.61387112 -.00005709  00000+0 -72059-3 0  9998
2 63729  51.9009 128.7159 0008610  97.0228 263.1714 14.79883656 34827
KUIPER-00014            
1 63730U 25088G   25347.67956201  .00001998  00000+0  29084-3 0  9991
2 63730  51.9030 129.3908 0009810 159.5787 200.5569 14.79978253 34639
KUIPER-00015            
1 63731U 25088H   25347.17869785  .00003660  00000+0  48493-3 0  9990
2 63731  51.8978 142.5837 0011059 147.7894 212.3747 14.81980220 34868
