<?xml version="1.0" encoding="UTF-8"?>
<ndm xmlns:xsi="http://www.w3.org/2001/XMLSchema-instance" xsi:noNamespaceSchemaLocation="https://sanaregistry.org/r/ndmxml_unqualified/ndmxml-2.0.0-master-2.0.xsd">
<omm id="CCSDS_OMM_VERS" version="2.0">
<header><CREATION_DATE/><ORIGINATOR/></header><body><segment><metadata><OBJECT_NAME>KUIPER-00008</OBJECT_NAME><OBJECT_ID>2025-088A</OBJECT_ID><CENTER_NAME>EARTH</CENTER_NAME><REF_FRAME>TEME</REF_FRAME><TIME_SYSTEM>UTC</TIME_SYSTEM><MEAN_ELEMENT_THEORY>SGP4</MEAN_ELEMENT_THEORY></metadata><data><meanElements><EPOCH>2025-12-13T15:26:49.081632</EPOCH><MEAN_MOTION>14.99411824</MEAN_MOTION><ECCENTRICITY>.00095887</ECCENTRICITY><INCLINATION>51.8926</INCLINATION><RA_OF_ASC_NODE>119.1340</RA_OF_ASC_NODE><ARG_OF_PERICENTER>173.9091</ARG_OF_PERICENTER><MEAN_ANOMALY>186.1998</MEAN_ANOMALY></meanElements><tleParameters><EPHEMERIS_TYPE>0</EPHEMERIS_TYPE><CLASSIFICATION_TYPE>U</CLASSIFICATION_TYPE><NORAD_CAT_ID>63724</NORAD_CAT_ID><ELEMENT_SET_NO>999</ELEMENT_SET_NO><REV_AT_EPOCH>3515</REV_AT_EPOCH><BSTAR>-.74397208E-3</BSTAR><MEAN_MOTION_DOT>-.9475E-4</MEAN_MOTION_DOT><MEAN_MOTION_DDOT>0</MEAN_MOTION_DDOT></tleParameters></data></segment></body></omm>
<omm id="CCSDS_OMM_VERS" version="2.0">
<header><CREATION_DATE/><ORIGINATOR/></header><body><segment><metadata><OBJECT_NAME>KUIPER-00009</OBJECT_NAME><OBJECT_ID>2025-088B</OBJECT_ID><CENTER_NAME>EARTH</CENTER_NAME><REF_FRAME>TEME</REF_FRAME><TIME_SYSTEM>UTC</TIME_SYSTEM><MEAN_ELEMENT_THEORY>SGP4</MEAN_ELEMENT_THEORY></metadata><data><meanElements><EPOCH>2025-12-13T16:22:36.996960</EPOCH><MEAN_MOTION>14.79817867</MEAN_MOTION><ECCENTRICITY>.00129684</ECCENTRICITY><INCLINATION>51.9012</INCLINATION><RA_OF_ASC_NODE>126.9415</RA_OF_ASC_NODE><ARG_OF_PERICENTER>164.0591</ARG_OF_PERICENTER><MEAN_ANOMALY>196.0782</MEAN_ANOMALY></meanElements><tleParameters><EPHEMERIS_TYPE>0</EPHEMERIS_TYPE><CLASSIFICATION_TYPE>U</CLASSIFICATION_TYPE><NORAD_CAT_ID>63725</NORAD_CAT_ID><ELEMENT_SET_NO>999</ELEMENT_SET_NO><REV_AT_EPOCH>3504</REV_AT_EPOCH><BSTAR>-.21929136E-2</BSTAR><MEAN_MOTION_DOT>-.16879E-3</MEAN_MOTION_DOT><MEAN_MOTION_DDOT>0</MEAN_MOTION_DDOT></tleParameters></data></segment></body></omm>
<omm id="CCSDS_OMM_VERS" version="2.0">
<header><CREATION_DATE/><ORIGINATOR/></header><body><segment><metadata><OBJECT_NAME>KUIPER-00010</OBJECT_NAME><OBJECT_ID>2025-088C</OBJECT_ID><CENTER_NAME>EARTH</CENTER_NAME><REF_FRAME>TEME</REF_FRAME><TIME_SYSTEM>UTC</TIME_SYSTEM><MEAN_ELEMENT_THEORY>SGP4</MEAN_ELEMENT_THEORY></metadata><data><meanElements><EPOCH>2025-12-13T14:20:40.692480</EPOCH><MEAN_MOTION>14.80410472</MEAN_MOTION><ECCENTRICITY>.00117999</ECCENTRICITY><INCLINATION>51.8995</INCLINATION><RA_OF_ASC_NODE>103.6828</RA_OF_ASC_NODE><ARG_OF_PERICENTER>212.3411</ARG_OF_PERICENTER><MEAN_ANOMALY>147.6830</MEAN_ANOMALY></meanElements><tleParameters><EPHEMERIS_TYPE>0</EPHEMERIS_TYPE><CLASSIFICATION_TYPE>U</CLASSIFICATION_TYPE><NORAD_CAT_ID>63726</NORAD_CAT_ID><ELEMENT_SET_NO>999</ELEMENT_SET_NO><REV_AT_EPOCH>3498</REV_AT_EPOCH><BSTAR>.53633642E-3</BSTAR><MEAN_MOTION_DOT>.3918E-4</MEAN_MOTION_DOT><MEAN_MOTION_DDOT>0</MEAN_MOTION_DDOT></tleParameters></data></segment></body></omm>
<omm id="CCSDS_OMM_VERS" version="2.0">
<header><CREATION_DATE/><ORIGINATOR/></header><body><segment><metadata><OBJECT_NAME>KUIPER-00011</OBJECT_NAME><OBJECT_ID>2025-088D</OBJECT_ID><CENTER_NAME>EARTH</CENTER_NAME><REF_FRAME>TEME</REF_FRAME><TIME_SYSTEM>UTC</TIME_SYSTEM><MEAN_ELEMENT_THEORY>SGP4</MEAN_ELEMENT_THEORY></metadata><data><meanElements><EPOCH>2025-12-13T15:11:04.385760</EPOCH><MEAN_MOTION>14.79924336</MEAN_MOTION><ECCENTRICITY>.00142603</ECCENTRICITY><INCLINATION>51.8982</INCLINATION><RA_OF_ASC_NODE>111.1983</RA_OF_ASC_NODE><ARG_OF_PERICENTER>182.8337</ARG_OF_PERICENTER><MEAN_ANOMALY>177.2547</MEAN_ANOMALY></meanElements><tleParameters><EPHEMERIS_TYPE>0</EPHEMERIS_TYPE><CLASSIFICATION_TYPE>U</CLASSIFICATION_TYPE><NORAD_CAT_ID>63727</NORAD_CAT_ID><ELEMENT_SET_NO>999</ELEMENT_SET_NO><REV_AT_EPOCH>3501</REV_AT_EPOCH><BSTAR>-.48090659E-3</BSTAR><MEAN_MOTION_DOT>-.3895E-4</MEAN_MOTION_DOT><MEAN_MOTION_DDOT>0</MEAN_MOTION_DDOT></tleParameters></data></segment></body></omm>
<omm id="CCSDS_OMM_VERS" version="2.0">
<header><CREATION_DATE/><ORIGINATOR/></header><body><segment><metadata><OBJECT_NAME>KUIPER-00012</OBJECT_NAME><OBJECT_ID>2025-088E</OBJECT_ID><CENTER_NAME>EARTH</CENTER_NAME><REF_FRAME>TEME</REF_FRAME><TIME_SYSTEM>UTC</TIME_SYSTEM><MEAN_ELEMENT_THEORY>SGP4</MEAN_ELEMENT_THEORY></metadata><data><meanElements><EPOCH>2025-12-13T16:06:13.415904</EPOCH><MEAN_MOTION>14.76787325</MEAN_MOTION><ECCENTRICITY>.00083627</ECCENTRICITY><INCLINATION>51.9013</INCLINATION><RA_OF_ASC_NODE>94.4323</RA_OF_ASC_NODE><ARG_OF_PERICENTER>194.7092</ARG_OF_PERICENTER><MEAN_ANOMALY>165.3627</MEAN_ANOMALY></meanElements><tleParameters><EPHEMERIS_TYPE>0</EPHEMERIS_TYPE><CLASSIFICATION_TYPE>U</CLASSIFICATION_TYPE><NORAD_CAT_ID>63728</NORAD_CAT_ID><ELEMENT_SET_NO>999</ELEMENT_SET_NO><REV_AT_EPOCH>3520</REV_AT_EPOCH><BSTAR>.69983978E-3</BSTAR><MEAN_MOTION_DOT>.4742E-4</MEAN_MOTION_DOT><MEAN_MOTION_DDOT>0</MEAN_MOTION_DDOT></tleParameters></data></segment></body></omm>
<omm id="CCSDS_OMM_VERS" version="2.0">
<header><CREATION_DATE/><ORIGINATOR/></header><body><segment><metadata><OBJECT_NAME>KUIPER-00013</OBJECT_NAME><OBJECT_ID>2025-088F</OBJECT_ID><CENTER_NAME>EARTH</CENTER_NAME><REF_FRAME>TEME</REF_FRAME><TIME_SYSTEM>UTC</TIME_SYSTEM><MEAN_ELEMENT_THEORY>SGP4</MEAN_ELEMENT_THEORY></metadata><data><meanElements><EPOCH>2025-12-13T14:43:58.464768</EPOCH><MEAN_MOTION>14.79883656</MEAN_MOTION><ECCENTRICITY>.000861</ECCENTRICITY><INCLINATION>51.9009</INCLINATION><RA_OF_ASC_NODE>128.7159</RA_OF_ASC_NODE><ARG_OF_PERICENTER>97.0228</ARG_OF_PERICENTER><MEAN_ANOMALY>263.1714</MEAN_ANOMALY></meanElements><tleParameters><EPHEMERIS_TYPE>0</EPHEMERIS_TYPE><CLASSIFICATION_TYPE>U</CLASSIFICATION_TYPE><NORAD_CAT_ID>63729</NORAD_CAT_ID><ELEMENT_SET_NO>999</ELEMENT_SET_NO><REV_AT_EPOCH>3482</REV_AT_EPOCH><BSTAR>-.72058697E-3</BSTAR><MEAN_MOTION_DOT>-.5709E-4</MEAN_MOTION_DOT><MEAN_MOTION_DDOT>0</MEAN_MOTION_DDOT></tleParameters></data></segment></body></omm>
<omm id="CCSDS_OMM_VERS" version="2.0">
<header><CREATION_DATE/><ORIGINATOR/></header><body><segment><metadata><OBJECT_NAME>KUIPER-00014</OBJECT_NAME><OBJECT_ID>2025-088G</OBJECT_ID><CENTER_NAME>EARTH</CENTER_NAME><REF_FRAME>TEME</REF_FRAME><TIME_SYSTEM>UTC</TIME_SYSTEM><MEAN_ELEMENT_THEORY>SGP4</MEAN_ELEMENT_THEORY></metadata><data><meanElements><EPOCH>2025-12-13T16:18:34.157664</EPOCH><MEAN_MOTION>14.79978253</MEAN_MOTION><ECCENTRICITY>.000981</ECCENTRICITY><INCLINATION>51.9030</INCLINATION><RA_OF_ASC_NODE>129.3908</RA_OF_ASC_NODE><ARG_OF_PERICENTER>159.5787</ARG_OF_PERICENTER><MEAN_ANOMALY>200.5569</MEAN_ANOMALY></meanElements><tleParameters><EPHEMERIS_TYPE>0</EPHEMERIS_TYPE><CLASSIFICATION_TYPE>U</CLASSIFICATION_TYPE><NORAD_CAT_ID>63730</NORAD_CAT_ID><ELEMENT_SET_NO>999</ELEMENT_SET_NO><REV_AT_EPOCH>3463</REV_AT_EPOCH><BSTAR>.29084282E-3</BSTAR><MEAN_MOTION_DOT>.1998E-4</MEAN_MOTION_DOT><MEAN_MOTION_DDOT>0</MEAN_MOTION_DDOT></tleParameters></data></segment></body></omm>
<omm id="CCSDS_OMM_VERS" version="2.0">
<header><CREATION_DATE/><ORIGINATOR/></header><body><segment><metadata><OBJECT_NAME>KUIPER-00015</OBJECT_NAME><OBJECT_ID>2025-088H</OBJECT_ID><CENTER_NAME>EARTH</CENTER_NAME><REF_FRAME>TEME</REF_FRAME><TIME_SYSTEM>UTC</TIME_SYSTEM><MEAN_ELEMENT_THEORY>SGP4</MEAN_ELEMENT_THEORY></metadata><data><meanElements><EPOCH>2025-12-13T04:17:19.494240</EPOCH><MEAN_MOTION>14.81980220</MEAN_MOTION><ECCENTRICITY>.00110591</ECCENTRICITY><INCLINATION>51.8978</INCLINATION><RA_OF_ASC_NODE>142.5837</RA_OF_ASC_NODE><ARG_OF_PERICENTER>147.7894</ARG_OF_PERICENTER><MEAN_ANOMALY>212.3747</MEAN_ANOMALY></meanElements><tleParameters><EPHEMERIS_TYPE>0</EPHEMERIS_TYPE><CLASSIFICATION_TYPE>U</CLASSIFICATION_TYPE><NORAD_CAT_ID>63731</NORAD_CAT_ID><ELEMENT_SET_NO>999</ELEMENT_SET_NO><REV_AT_EPOCH>3486</REV_AT_EPOCH><BSTAR>.48493044E-3</BSTAR><MEAN_MOTION_DOT>.366E-4</MEAN_MOTION_DOT><MEAN_MOTION_DDOT>0</MEAN_MOTION_DDOT></tleParameters></data></segment></body></omm>

</ndm>
